{
  "type": "FeatureCollection",
  "features": [
    {
      "type": "Feature",
      "properties": {
        "norad_id": 63632,
        "name": "SHENZHOU-20 (SZ-20)",
        "group": "stations",
        "lat": 40.232295885269174,
        "lon": 119.66616907440903,
        "alt_km": 383.8721450110461,
        "timestamp": "2025-12-07T20:38:12.884365+00:00",
        "meta_object_name": "SHENZHOU-20 (SZ-20)",
        "meta_object_id": "2025-082A",
        "meta_epoch": "2025-12-07T06:28:07.735872",
        "meta_mean_motion": 15.58832972,
        "meta_eccentricity": 0.00093583,
        "meta_inclination": 41.4682,
        "meta_ra_of_asc_node": 49.9091,
        "meta_arg_of_pericenter": 347.392,
        "meta_mean_anomaly": 12.6683,
        "meta_ephemeris_type": 0,
        "meta_classification_type": "U",
        "meta_norad_cat_id": 63632,
        "meta_element_set_no": 999,
        "meta_rev_at_epoch": 25530,
        "meta_bstar": 0.0003547841,
        "meta_mean_motion_dot": 0.00028044,
        "meta_mean_motion_ddot": 0,
        "tle_line1": "1 63632U 25082A   25341.26953398  .00028044  00000+0  35478-3 0  9994",
        "tle_line2": "2 63632  41.4682  49.9091 0009358 347.3920  12.6683 15.58832972255303"
      },
      "geometry": {
        "type": "Point",
        "coordinates": [
          119.66616907440903,
          40.232295885269174
        ]
      }
    },
    {
      "type": "Feature",
      "properties": {
        "norad_id": 64751,
        "name": "PROGRESS-MS 31",
        "group": "stations",
        "lat": 22.643554720358146,
        "lon": -32.66080729140187,
        "alt_km": 414.8979849119687,
        "timestamp": "2025-12-07T20:38:12.884375+00:00",
        "meta_object_name": "PROGRESS-MS 31",
        "meta_object_id": "2025-146A",
        "meta_epoch": "2025-12-07T04:30:36.916128",
        "meta_mean_motion": 15.49384117,
        "meta_eccentricity": 0.00034959,
        "meta_inclination": 51.6302,
        "meta_ra_of_asc_node": 169.9669,
        "meta_arg_of_pericenter": 214.2568,
        "meta_mean_anomaly": 145.8196,
        "meta_ephemeris_type": 0,
        "meta_classification_type": "U",
        "meta_norad_cat_id": 64751,
        "meta_element_set_no": 999,
        "meta_rev_at_epoch": 675,
        "meta_bstar": 0.00024795554,
        "meta_mean_motion_dot": 0.00013419,
        "meta_mean_motion_ddot": 0,
        "tle_line1": "1 64751U 25146A   25341.18792727  .00013419  00000+0  24796-3 0  9997",
        "tle_line2": "2 64751  51.6302 169.9669 0003495 214.2568 145.8196 15.49384117  6752"
      },
      "geometry": {
        "type": "Point",
        "coordinates": [
          -32.66080729140187,
          22.643554720358146
        ]
      }
    },
    {
      "type": "Feature",
      "properties": {
        "norad_id": 64786,
        "name": "TIANZHOU-9",
        "group": "stations",
        "lat": 40.23229613247073,
        "lon": 119.66617074832747,
        "alt_km": 383.8721451155816,
        "timestamp": "2025-12-07T20:38:12.884385+00:00",
        "meta_object_name": "TIANZHOU-9",
        "meta_object_id": "2025-149A",
        "meta_epoch": "2025-12-07T06:28:07.735872",
        "meta_mean_motion": 15.58832972,
        "meta_eccentricity": 0.00093583,
        "meta_inclination": 41.4682,
        "meta_ra_of_asc_node": 49.9091,
        "meta_arg_of_pericenter": 347.392,
        "meta_mean_anomaly": 12.6683,
        "meta_ephemeris_type": 0,
        "meta_classification_type": "U",
        "meta_norad_cat_id": 64786,
        "meta_element_set_no": 999,
        "meta_rev_at_epoch": 25530,
        "meta_bstar": 0.0003547841,
        "meta_mean_motion_dot": 0.00028044,
        "meta_mean_motion_ddot": 0,
        "tle_line1": "1 64786U 25149A   25341.26953398  .00028044  00000+0  35478-3 0  9999",
        "tle_line2": "2 64786  41.4682  49.9091 0009358 347.3920  12.6683 15.58832972255304"
      },
      "geometry": {
        "type": "Point",
        "coordinates": [
          119.66617074832747,
          40.23229613247073
        ]
      }
    },
    {
      "type": "Feature",
      "properties": {
        "norad_id": 65077,
        "name": "CREW DRAGON 11",
        "group": "stations",
        "lat": 22.64355376342191,
        "lon": -32.66080634943376,
        "alt_km": 414.8979850166179,
        "timestamp": "2025-12-07T20:38:12.884395+00:00",
        "meta_object_name": "CREW DRAGON 11",
        "meta_object_id": "2025-166A",
        "meta_epoch": "2025-12-07T04:30:36.916128",
        "meta_mean_motion": 15.49384117,
        "meta_eccentricity": 0.00034959,
        "meta_inclination": 51.6302,
        "meta_ra_of_asc_node": 169.9669,
        "meta_arg_of_pericenter": 214.2568,
        "meta_mean_anomaly": 145.8196,
        "meta_ephemeris_type": 0,
        "meta_classification_type": "U",
        "meta_norad_cat_id": 65077,
        "meta_element_set_no": 999,
        "meta_rev_at_epoch": 214,
        "meta_bstar": 0.00024795554,
        "meta_mean_motion_dot": 0.00013419,
        "meta_mean_motion_ddot": 0,
        "tle_line1": "1 65077U 25166A   25341.18792727  .00013419  00000+0  24796-3 0  9991",
        "tle_line2": "2 65077  51.6302 169.9669 0003495 214.2568 145.8196 15.49384117  2143"
      },
      "geometry": {
        "type": "Point",
        "coordinates": [
          -32.66080634943376,
          22.64355376342191
        ]
      }
    },
    {
      "type": "Feature",
      "properties": {
        "norad_id": 65304,
        "name": "DRAGON CRS-33",
        "group": "stations",
        "lat": 22.643553237107074,
        "lon": -32.66080583135136,
        "alt_km": 414.89798507417436,
        "timestamp": "2025-12-07T20:38:12.884406+00:00",
        "meta_object_name": "DRAGON CRS-33",
        "meta_object_id": "2025-186A",
        "meta_epoch": "2025-12-07T04:30:36.916128",
        "meta_mean_motion": 15.49384117,
        "meta_eccentricity": 0.00034959,
        "meta_inclination": 51.6302,
        "meta_ra_of_asc_node": 169.9669,
        "meta_arg_of_pericenter": 214.2568,
        "meta_mean_anomaly": 145.8196,
        "meta_ephemeris_type": 0,
        "meta_classification_type": "U",
        "meta_norad_cat_id": 65304,
        "meta_element_set_no": 999,
        "meta_rev_at_epoch": 11,
        "meta_bstar": 0.00024795554,
        "meta_mean_motion_dot": 0.00013419,
        "meta_mean_motion_ddot": 0,
        "tle_line1": "1 65304U 25186A   25341.18792727  .00013419  00000+0  24796-3 0  9996",
        "tle_line2": "2 65304  51.6302 169.9669 0003495 214.2568 145.8196 15.49384117   111"
      },
      "geometry": {
        "type": "Point",
        "coordinates": [
          -32.66080583135136,
          22.643553237107074
        ]
      }
    },
    {
      "type": "Feature",
      "properties": {
        "norad_id": 65586,
        "name": "PROGRESS-MS 32",
        "group": "stations",
        "lat": 22.6435527107922,
        "lon": -32.66080531326896,
        "alt_km": 414.89798513173173,
        "timestamp": "2025-12-07T20:38:12.884417+00:00",
        "meta_object_name": "PROGRESS-MS 32",
        "meta_object_id": "2025-204A",
        "meta_epoch": "2025-12-07T04:30:36.916128",
        "meta_mean_motion": 15.49384117,
        "meta_eccentricity": 0.00034959,
        "meta_inclination": 51.6302,
        "meta_ra_of_asc_node": 169.9669,
        "meta_arg_of_pericenter": 214.2568,
        "meta_mean_anomaly": 145.8196,
        "meta_ephemeris_type": 0,
        "meta_classification_type": "U",
        "meta_norad_cat_id": 65586,
        "meta_element_set_no": 999,
        "meta_rev_at_epoch": 27,
        "meta_bstar": 0.00024795554,
        "meta_mean_motion_dot": 0.00013419,
        "meta_mean_motion_ddot": 0,
        "tle_line1": "1 65586U 25204A   25341.18792727  .00013419  00000+0  24796-3 0  9999",
        "tle_line2": "2 65586  51.6302 169.9669 0003495 214.2568 145.8196 15.49384117   270"
      },
      "geometry": {
        "type": "Point",
        "coordinates": [
          -32.66080531326896,
          22.6435527107922
        ]
      }
    },
    {
      "type": "Feature",
      "properties": {
        "norad_id": 65616,
        "name": "CYGNUS NG-23",
        "group": "stations",
        "lat": 22.64355228017082,
        "lon": -32.660804889383286,
        "alt_km": 414.89798517882446,
        "timestamp": "2025-12-07T20:38:12.884426+00:00",
        "meta_object_name": "CYGNUS NG-23",
        "meta_object_id": "2025-208A",
        "meta_epoch": "2025-12-07T04:30:36.916128",
        "meta_mean_motion": 15.49384117,
        "meta_eccentricity": 0.00034959,
        "meta_inclination": 51.6302,
        "meta_ra_of_asc_node": 169.9669,
        "meta_arg_of_pericenter": 214.2568,
        "meta_mean_anomaly": 145.8196,
        "meta_ephemeris_type": 0,
        "meta_classification_type": "U",
        "meta_norad_cat_id": 65616,
        "meta_element_set_no": 999,
        "meta_rev_at_epoch": 22,
        "meta_bstar": 0.00024795554,
        "meta_mean_motion_dot": 0.00013419,
        "meta_mean_motion_ddot": 0,
        "tle_line1": "1 65616U 25208A   25341.18792727  .00013419  00000+0  24796-3 0  9997",
        "tle_line2": "2 65616  51.6302 169.9669 0003495 214.2568 145.8196 15.49384117   229"
      },
      "geometry": {
        "type": "Point",
        "coordinates": [
          -32.660804889383286,
          22.64355228017082
        ]
      }
    }
  ]
}